NORAD_CAT_ID,OBJECT_NAME,OBJECT_TYPE,EPOCH,MEAN_MOTION,ECCENTRICITY,INCLINATION,RA_OF_ASC_NODE,ARG_OF_PERICENTER,MEAN_ANOMALY,BSTAR,MEAN_MOTION_DOT,MEAN_MOTION_DDOT,TLE_LINE0,TLE_LINE1,TLE_LINE2,SEMIMAJOR_AXIS,PERIOD,APOGEE,PERIGEE,DECAYED
55746.0,STARLINK-5579,PAYLOAD,2023-05-14 20:49:39,14.98622876,0.0003368,70.0001,320.9722,271.0066,89.0708,-0.0046039,-0.00055014,0.0,0 STARLINK-5579,1 55746U 23028F   23134.86781322 -.00055014  00000-0 -46039-2 0  9993,2 55746  70.0001 320.9722 0003368 271.0066  89.0708 14.98622876 11786,6949.287,96.088,573.493,568.812,0.0
55746.0,STARLINK-5579,PAYLOAD,2023-05-15 06:26:24,14.98539239,0.0003625,69.9996,319.9613,269.9782,90.0962,-0.003531,-0.00042202,0.0,0 STARLINK-5579,1 55746U 23028F   23135.26834044 -.00042202  00000-0 -35310-2 0  9993,2 55746  69.9996 319.9613 0003625 269.9782  90.0962 14.98539239 11841,6949.546,96.094,573.93,568.892,0.0
55746.0,STARLINK-5579,PAYLOAD,2023-05-15 12:51:00,14.983283,0.0003143,69.9996,319.2881,270.3068,89.7731,6.7695e-06,-1.2e-07,0.0,0 STARLINK-5579,1 55746U 23028F   23135.53541829 -.00000012  00000-0  67695-5 0  9995,2 55746  69.9996 319.2881 0003143 270.3068  89.7731 14.98328300 11887,6950.198,96.107,574.248,569.879,0.0
55746.0,STARLINK-5579,PAYLOAD,2023-05-15 22:00:00,14.98314761,0.0003247,70.0015,318.3273,272.2249,343.7913,0.002314,0.00027616,0.0,0 STARLINK-5579,1 55746U 23028F   23135.91667824  .00027616  00000-0  23140-2 0  9993,2 55746  70.0015 318.3273 0003247 272.2249 343.7913 14.98314761 11931,6950.24,96.108,574.362,569.848,0.0
55746.0,STARLINK-5579,PAYLOAD,2023-05-16 14:00:01,14.98356001,0.000326,70.0014,316.6464,266.8942,344.1309,-0.0025872,-0.00030849,0.0,0 STARLINK-5579,1 55746U 23028F   23136.58335648 -.00030849  00000-0 -25872-2 0  9991,2 55746  70.0014 316.6464 0003260 266.8942 344.1309 14.98356001 12036,6950.112,96.105,574.243,569.712,0.0
55746.0,STARLINK-5579,PAYLOAD,2023-05-16 22:00:00,14.98315859,0.0003227,70.0012,315.8058,273.8359,334.6311,0.0021221,0.0002531,0.0,0 STARLINK-5579,1 55746U 23028F   23136.91667824  .00025310  00000-0  21221-2 0  9991,2 55746  70.0012 315.8058 0003227 273.8359 334.6311 14.98315859  1308,6950.237,96.108,574.344,569.859,0.0
55746.0,STARLINK-5579,PAYLOAD,2023-05-17 04:54:21,14.98329204,0.0003117,69.9994,315.0798,269.6371,90.4431,-4.7234e-07,-9.9e-07,0.0,0 STARLINK-5579,1 55746U 23028F   23137.20441817 -.00000099  00000-0 -47234-6 0  9991,2 55746  69.9994 315.0798 0003117 269.6371  90.4431 14.98329204 12134,6950.195,96.107,574.227,569.894,0.0
55746.0,STARLINK-5579,PAYLOAD,2023-05-17 20:55:42,14.98329324,0.00031,70.0,313.3969,268.3185,91.7619,-6.2506e-06,-1.68e-06,0.0,0 STARLINK-5579,1 55746U 23028F   23137.87201852 -.00000168  00000-0 -62506-5 0  9992,2 55746  70.0000 313.3969 0003100 268.3185  91.7619 14.98329324 12233,6950.195,96.107,574.215,569.905,0.0
55746.0,STARLINK-5579,PAYLOAD,2023-05-18 11:20:54,14.98329978,0.0003056,70.0003,311.8822,267.5735,92.5074,4.0585e-06,-4.5e-07,0.0,0 STARLINK-5579,1 55746U 23028F   23138.47285770 -.00000045  00000-0  40585-5 0  9996,2 55746  70.0003 311.8822 0003056 267.5735  92.5074 14.98329978 12328,6950.193,96.107,574.182,569.934,0.0
55746.0,STARLINK-5579,PAYLOAD,2023-05-18 12:57:02,14.98330365,0.0003068,70.0002,311.7138,267.3684,92.7124,9.8255e-06,2.4e-07,0.0,0 STARLINK-5579,1 55746U 23028F   23138.53961713  .00000024  00000-0  98255-5 0  9994,2 55746  70.0002 311.7138 0003068 267.3684  92.7124 14.98330365 12331,6950.192,96.107,574.189,569.924,0.0
55746.0,STARLINK-5579,PAYLOAD,2023-05-18 17:45:26,14.98331969,0.0003087,70.0002,311.2086,267.2177,92.8629,1.3395e-05,6.7e-07,0.0,0 STARLINK-5579,1 55746U 23028F   23138.73989578  .00000067  00000-0  13395-4 0  9993,2 55746  70.0002 311.2086 0003087 267.2177  92.8629 14.98331969 12360,6950.187,96.107,574.197,569.906,0.0
55746.0,STARLINK-5579,PAYLOAD,2023-05-19 17:47:28,14.98329178,0.0003195,69.9997,308.6836,269.358,90.7213,-3.3844e-06,-1.33e-06,0.0,0 STARLINK-5579,1 55746U 23028F   23139.74129759 -.00000133  00000-0 -33844-5 0  9990,2 55746  69.9997 308.6836 0003195 269.3580  90.7213 14.98329178 12516,6950.195,96.107,574.281,569.84,0.0
55746.0,STARLINK-5579,PAYLOAD,2023-05-19 20:59:44,14.98329835,0.0003191,69.9998,308.3469,269.4691,90.6103,3.7542e-06,-4.8e-07,0.0,0 STARLINK-5579,1 55746U 23028F   23139.87481698 -.00000048  00000-0  37542-5 0  9990,2 55746  69.9998 308.3469 0003191 269.4691  90.6103 14.98329835 12535,6950.193,96.107,574.276,569.841,0.0
55746.0,STARLINK-5579,PAYLOAD,2023-05-20 17:49:28,14.98327113,0.0003129,69.9997,306.1586,269.1622,90.9179,0.00019913,2.284e-05,0.0,0 STARLINK-5579,1 55746U 23028F   23140.74269271  .00002284  00000-0  19913-3 0  9992,2 55746  69.9997 306.1586 0003129 269.1622  90.9179 14.98327113 12669,6950.202,96.107,574.242,569.892,0.0
55746.0,STARLINK-5579,PAYLOAD,2023-05-20 19:25:36,14.98337355,0.0003184,69.9996,305.9903,269.4209,90.6586,3.9799e-05,3.82e-06,0.0,0 STARLINK-5579,1 55746U 23028F   23140.80945012  .00000382  00000-0  39799-4 0  9995,2 55746  69.9996 305.9903 0003184 269.4209  90.6586 14.98337355 12672,6950.17,96.107,574.248,569.822,0.0
55746.0,STARLINK-5579,PAYLOAD,2023-05-20 21:01:44,14.98338537,0.0003177,69.9997,305.8219,269.4127,90.6668,5.155e-05,5.22e-06,0.0,0 STARLINK-5579,1 55746U 23028F   23140.87620875  .00000522  00000-0  51550-4 0  9994,2 55746  69.9997 305.8219 0003177 269.4127  90.6668 14.98338537 12688,6950.166,96.106,574.24,569.823,0.0
55746.0,STARLINK-5579,PAYLOAD,2023-05-21 09:50:49,14.98330212,0.0002819,70.0004,304.4753,270.8393,89.2443,-7.1042e-05,-9.41e-06,0.0,0 STARLINK-5579,1 55746U 23028F   23141.41029791 -.00000941  00000-0 -71042-4 0  9990,2 55746  70.0004 304.4753 0002819 270.8393  89.2443 14.98330212 12767,6950.192,96.107,574.016,570.098,0.0
55746.0,STARLINK-5579,PAYLOAD,2023-05-21 11:26:57,14.98328909,0.0002807,70.0006,304.3069,270.8878,89.1959,-9.1022e-05,-1.179e-05,0.0,0 STARLINK-5579,1 55746U 23028F   23141.47705932 -.00001179  00000-0 -91022-4 0  9998,2 55746  70.0006 304.3069 0002807 270.8878  89.1959 14.98328909 12775,6950.196,96.107,574.012,570.11,0.0
55746.0,STARLINK-5579,PAYLOAD,2023-05-21 17:51:30,14.98322991,0.000303,70.0005,303.6347,268.1322,91.949,-6.7359e-05,-8.96e-06,0.0,0 STARLINK-5579,1 55746U 23028F   23141.74410233 -.00000896  00000-0 -67359-4 0  9996,2 55746  70.0005 303.6347 0003030 268.1322  91.9490 14.98322991 12819,6950.215,96.107,574.185,569.974,0.0
55746.0,STARLINK-5579,PAYLOAD,2023-05-22 09:52:50,14.98331364,0.0003295,69.9998,301.9503,271.5698,88.5083,-2.3167e-05,-3.69e-06,0.0,0 STARLINK-5579,1 55746U 23028F   23142.41169733 -.00000369  00000-0 -23167-4 0  9991,2 55746  69.9998 301.9503 0003295 271.5698  88.5083 14.98331364 12914,6950.189,96.107,574.344,569.764,0.0
55746.0,STARLINK-5579,PAYLOAD,2023-05-22 16:17:22,14.98334582,0.0003265,70.0,301.2771,271.5357,88.5428,8.2668e-06,6e-08,0.0,0 STARLINK-5579,1 55746U 23028F   23142.67873400  .00000006  00000-0  82668-5 0  9990,2 55746  70.0000 301.2771 0003265 271.5357  88.5428 14.98334582 12952,6950.179,96.107,574.313,569.774,0.0
55746.0,STARLINK-5579,PAYLOAD,2023-05-23 11:30:59,14.98325389,0.0003274,69.9999,299.2574,272.4902,87.5882,7.8874e-05,8.48e-06,0.0,0 STARLINK-5579,1 55746U 23028F   23143.47985574  .00000848  00000-0  78874-4 0  9992,2 55746  69.9999 299.2574 0003274 272.4902  87.5882 14.98325389 13071,6950.207,96.107,574.348,569.797,0.0
55746.0,STARLINK-5579,PAYLOAD,2023-05-23 16:19:23,14.98332415,0.0003189,70.0003,298.7532,269.0999,90.9794,0.00015315,1.735e-05,0.0,0 STARLINK-5579,1 55746U 23028F   23143.68012867  .00001735  00000-0  15315-3 0  9997,2 55746  70.0003 298.7532 0003189 269.0999  90.9794 14.98332415 13103,6950.185,96.107,574.267,569.834,0.0
55746.0,STARLINK-5579,PAYLOAD,2023-05-23 19:31:38,14.98336584,0.0003211,70.0,298.4159,270.607,89.4721,0.00017963,2.051e-05,0.0,0 STARLINK-5579,1 55746U 23028F   23143.81364474  .00002051  00000-0  17963-3 0  9999,2 55746  70.0000 298.4159 0003211 270.6070  89.4721 14.98336584 13122,6950.173,96.107,574.269,569.806,0.0
55746.0,STARLINK-5579,PAYLOAD,2023-05-24 14:45:16,14.98327832,0.000302,70.0014,296.397,273.6536,86.4278,-9.169e-05,-1.187e-05,0.0,0 STARLINK-5579,1 55746U 23028F   23144.61477687 -.00001187  00000-0 -91690-4 0  9990,2 55746  70.0014 296.3970 0003020 273.6536  86.4278 14.98327832 13246,6950.2,96.107,574.164,569.966,0.0
55746.0,STARLINK-5579,PAYLOAD,2023-05-25 17:59:33,14.98339366,0.0003478,70.0001,293.5341,271.7964,88.2797,-8.8792e-05,-1.153e-05,0.0,0 STARLINK-5579,1 55746U 23028F   23145.74968902 -.00001153  00000-0 -88792-4 0  9992,2 55746  70.0001 293.5341 0003478 271.7964  88.2797 14.98339366 13414,6950.164,96.106,574.446,569.612,0.0
55746.0,STARLINK-5579,PAYLOAD,2023-05-25 19:35:41,14.9834046,0.0003541,69.9999,293.3656,271.3635,88.7119,-7.3804e-05,-9.74e-06,0.0,0 STARLINK-5579,1 55746U 23028F   23145.81644759 -.00000974  00000-0 -73804-4 0  9999,2 55746  69.9999 293.3656 0003541 271.3635  88.7119 14.98340460 13427,6950.161,96.106,574.487,569.564,0.0
55746.0,STARLINK-5579,PAYLOAD,2023-05-26 10:00:54,14.98322464,0.0003446,70.0003,291.8509,273.5549,86.5216,7.3702e-05,7.86e-06,0.0,0 STARLINK-5579,1 55746U 23028F   23146.41729411  .00000786  00000-0  73702-4 0  9991,2 55746  70.0003 291.8509 0003446 273.5549  86.5216 14.98322464 13516,6950.216,96.107,574.476,569.686,0.0
55746.0,STARLINK-5579,PAYLOAD,2023-05-26 13:13:10,14.98322229,0.0003458,70.0003,291.5142,273.3645,86.7118,6.9526e-05,7.36e-06,0.0,0 STARLINK-5579,1 55746U 23028F   23146.55081490  .00000736  00000-0  69526-4 0  9998,2 55746  70.0003 291.5142 0003458 273.3645  86.7118 14.98322229 13538,6950.217,96.107,574.485,569.679,0.0
55746.0,STARLINK-5579,PAYLOAD,2023-05-26 19:37:42,14.98325153,0.0003457,70.0004,290.8407,272.9014,87.175,7.6217e-05,8.16e-06,0.0,0 STARLINK-5579,1 55746U 23028F   23146.81785372  .00000816  00000-0  76217-4 0  9991,2 55746  70.0004 290.8407 0003457 272.9014  87.1750 14.98325153 13579,6950.208,96.107,574.476,569.67,0.0
